LEMUR-1                 
1 40044U 14033AL  26189.91912601  .00001245  00000+0  14819-3 0  9995
2 40044  97.7901 339.2449 0048317   8.5943 351.6089 14.85324329648699
LEMUR-2-GREENBERG       
1 42837U 17042N   26190.23410264  .00012814  00000+0  41639-3 0  9999
2 42837  97.3832  10.7689 0007140 284.7697  75.2753 15.32026060491765
LEMUR-2-ANDIS           
1 42838U 17042P   26190.73271360  .00015725  00000+0  45347-3 0  9991
2 42838  97.3683  11.5304 0007099 281.4571  78.5875 15.35772741491916
LEMUR-2-MONSON          
1 42839U 17042Q   26190.74923672  .00009654  00000+0  34886-3 0  9993
2 42839  97.4092  11.2195 0005126 270.2225  89.8427 15.28660176491613
LEMUR-2-FURIAUS         
1 42840U 17042R   26190.76592409  .00012826  00000+0  43013-3 0  9994
2 42840  97.3780   9.2029 0006413 351.0660   9.0465 15.31011310491667
LEMUR-2-PETERG          
1 42841U 17042S   26189.94810303  .00015292  00000+0  45427-3 0  9990
2 42841  97.3999  15.0281 0002930 250.3592 109.7335 15.34864591491776
LEMUR-2-DEMBITZ         
1 42842U 17042T   26189.73984482  .00011664  00000+0  39206-3 0  9995
2 42842  97.3834  11.2222 0005126 303.4427  56.6324 15.30969559491645
LEMUR-2-ZACHARY         
1 42845U 17042W   26190.83151951  .00040627  00000+0  66596-3 0  9991
2 42845  97.3589  22.9819 0002380 275.3054  84.7927 15.52354875492711
LEMUR-2-AMANDA-SVANTE   
1 48269U 21034B   26190.19609264  .00025594  00000+0  73787-3 0  9993
2 48269  97.5750 269.0822 0004246 157.2695 202.8737 15.35697209284431
LEMUR-2-SPECIAL-K       
1 48273U 21034F   26189.78359953  .00202245  00000+0  14930-2 0  9992
2 48273  97.5632 278.3223 0005864 219.6394 140.4441 15.72370976285079
LEMUR-2-EMBRIONOVIS     
1 56970U 23084AQ  26190.32512284  .00010624  00000+0  28505-3 0  9994
2 56970  97.6309 335.3863 0007848 229.1156 130.9409 15.38125065171086
LEMUR-2-DEVERILL-M-T    
1 57391U 23100F   26188.69846859  .00016121  00000+0  39570-3 0  9998
2 57391  99.4460 233.3957 0004797 329.3522  30.7437 15.40821036164403
LEMUR-2-BASS            
1 58259U 23174D   26190.83637500  .00013575  00000+0  30063-3 0  9991
2 58259  97.3844 275.8760 0007911  94.1413 266.0739 15.43870414148857
LEMUR-2-JK0903EM1407    
1 58336U 23174CJ  26190.64194431  .00019554  00000+0  31633-3 0  9994
2 58336  97.3917 281.7629 0004082  51.7216 308.4404 15.52862811149213
LEMUR-2-MJR092620       
1 58340U 23174CN  26190.04617205  .00014182  00000+0  29527-3 0  9993
2 58340  97.3971 280.4893 0005891  50.7251 309.4519 15.45702331149023
LEMUR-2-NIMBUS2000      
1 58899U 24022A   26189.64523353  .00016384  00000+0  39955-3 0  9991
2 58899  97.4096  39.9264 0009407  49.8701 310.3369 15.40918823135575
LEMUR-2-VALHALLA        
1 58900U 24022B   26189.51761269  .00012113  00000+0  30170-3 0  9996
2 58900  97.4095  39.7731 0009908  46.0433 314.1629 15.40344373135553
LEMUR-2-CAEL            
1 58903U 24022E   26189.96344159  .00012930  00000+0  30790-3 0  9998
2 58903  97.4079  41.1995 0007848  30.7349 329.4356 15.41708829135696
LEMUR-2-JOHNNYTRUONG    
1 59146U 24043BA  26189.68505893  .00033181  00000+0  37828-3 0  9994
2 59146  97.5388 342.7481 0004329 112.0392 248.1325 15.62171037131397
LEMUR-2-TOMATOKECHUP    
1 60471U 24149D   26190.18826611  .00008251  00000+0  23392-3 0  9996
2 60471  97.3793 272.2971 0003009 133.0589 227.0907 15.36499131105543
LEMUR-2-STELLA          
1 60533U 24149BT  26190.05274528  .00007901  00000+0  46022-3 0  9991
2 60533  97.6729 272.6092 0001033 111.4430 248.6911 15.12285468103803
LEMUR-2-MARHISYAM       
1 60536U 24149BW  26190.17364470  .00008195  00000+0  48492-3 0  9992
2 60536  97.6877 273.2018 0002797  78.4878 281.6666 15.11702055103800
LEMUR-2-AHMED-ASRAR     
1 60576U 24149DN  26190.64909446  .00008854  00000+0  50191-3 0  9997
2 60576  97.7003 275.8609 0000696 238.2920 121.8243 15.13228976103960
LEMUR-2-LLOYD           
1 60577U 24149DP  26190.05092683  .00006907  00000+0  43278-3 0  9994
2 60577  97.6737 271.1966 0004815  85.7812 274.3967 15.09671321103699
LEMUR-2-SQUIRRELCOMM    
1 60578U 24149DQ  26189.03451372  .00003681  00000+0  24740-3 0  9994
2 60578  97.6707 269.8822 0004746 354.4134   5.7039 15.07397331103542
LEMUR-2-SIERRINI        
1 60579U 24149DR  26190.20145872  .00007493  00000+0  44695-3 0  9997
2 60579  97.6833 272.8968 0006475 106.2178 253.9765 15.11428190103782
LEMUR-2-WILSON          
1 62694U 25009CP  26190.17913811  .00001582  00000+0  14892-3 0  9994
2 62694  97.7024 268.2582 0002438 357.7647   2.3562 14.95266051 80642
LEMUR-2-STAR-FOX        
1 62696U 25009CR  26190.20095292  .00004293  00000+0  32529-3 0  9993
2 62696  97.6923 271.6529 0003047  63.5435 296.6102 15.02796400 80861
LEMUR-2-ARIANNA         
1 62699U 25009CU  26189.79991603  .00003955  00000+0  30009-3 0  9994
2 62699  97.6861 271.0121 0003448  70.2797 289.8800 15.02792285 80808
LEMUR-2-ALISIA          
1 62706U 25009DB  26190.17308690  .00006040  00000+0  45186-3 0  9995
2 62706  97.6960 272.1946 0003602 148.4324 211.7118 15.03115065103460
